start=new Date('2023-03-29T00:00:00.000Z').valueOf();
sats=[{"PERIAPSIS":"546.239","REV_AT_EPOCH":"16718","MEAN_MOTION":"15.06467356","OBJECT_ID":"2020-019BM","TLE_LINE2":"2 45419  53.0557 320.1660 0001109  95.2300 264.8816 15.06467356167189","ECCENTRICITY":"0.00011090","MEAN_ANOMALY":"264.8816","OBJECT_NAME":"STARLINK-1308","SEMIMAJOR_AXIS":"6925.142","TIME_SYSTEM":"UTC","OBJECT_TYPE":"PAYLOAD","COUNTRY_CODE":"US","MEAN_MOTION_DOT":"0.00027125","TLE_LINE1":"1 45419U 20019BM  23087.97758991  .00027125  00000-0  18296-2 0  9995","CENTER_NAME":"EARTH","REF_FRAME":"TEME","DECAY_DATE":null,"MEAN_ELEMENT_THEORY":"SGP4","MEAN_MOTION_DDOT":"0.0000000000000","RCS_SIZE":"LARGE","APOAPSIS":"547.775","GP_ID":"229042582","LAUNCH_DATE":"2020-03-18","EPOCH":"2023-03-28T23:27:43.768224","ELEMENT_SET_NO":"999","SITE":"AFETR","INCLINATION":"53.0557","NORAD_CAT_ID":"45419","EPHEMERIS_TYPE":"0","RA_OF_ASC_NODE":"320.1660","FILE":"3873857","PERIOD":"95.588","CLASSIFICATION_TYPE":"U","BSTAR":"0.00182960000000","ARG_OF_PERICENTER":"95.2300"},{"ECCENTRICITY":"0.00010550","MEAN_ANOMALY":"314.1635","OBJECT_NAME":"STARLINK-1329","SEMIMAJOR_AXIS":"6925.207","MEAN_MOTION_DOT":"0.00024010","COUNTRY_CODE":"US","OBJECT_TYPE":"PAYLOAD","TIME_SYSTEM":"UTC","TLE_LINE1":"1 45531U 20025A   23087.74721887  .00024010  00000-0  16233-2 0  9995","PERIAPSIS":"546.342","MEAN_MOTION":"15.06446045","REV_AT_EPOCH":"16277","OBJECT_ID":"2020-025A","TLE_LINE2":"2 45531  53.0522 261.2037 0001055  45.9441 314.1635 15.06446045162777","EPOCH":"2023-03-28T17:55:59.710368","SITE":"AFETR","ELEMENT_SET_NO":"999","NORAD_CAT_ID":"45531","INCLINATION":"53.0522","EPHEMERIS_TYPE":"0","RA_OF_ASC_NODE":"261.2037","PERIOD":"95.589","FILE":"3873921","CLASSIFICATION_TYPE":"U","BSTAR":"0.00162330000000","ARG_OF_PERICENTER":"45.9441","CENTER_NAME":"EARTH","REF_FRAME":"TEME","MEAN_ELEMENT_THEORY":"SGP4","DECAY_DATE":null,"MEAN_MOTION_DDOT":"0.0000000000000","GP_ID":"229062829","APOAPSIS":"547.803","RCS_SIZE":"LARGE","LAUNCH_DATE":"2020-04-22"},{"OBJECT_ID":"2020-025B","PERIAPSIS":"546.329","MEAN_MOTION":"15.06459394","REV_AT_EPOCH":"16279","TLE_LINE2":"2 45532  53.0531 260.5525 0001015  34.8078 325.2977 15.06459394162796","MEAN_ANOMALY":"325.2977","OBJECT_NAME":"STARLINK-1338","ECCENTRICITY":"0.00010150","TLE_LINE1":"1 45532U 20025B   23087.89096299  .00024417  00000-0  16498-2 0  9998","SEMIMAJOR_AXIS":"6925.167","TIME_SYSTEM":"UTC","COUNTRY_CODE":"US","MEAN_MOTION_DOT":"0.00024417","OBJECT_TYPE":"PAYLOAD","CENTER_NAME":"EARTH","REF_FRAME":"TEME","RCS_SIZE":"LARGE","APOAPSIS":"547.734","GP_ID":"229064080","LAUNCH_DATE":"2020-04-22","DECAY_DATE":null,"MEAN_ELEMENT_THEORY":"SGP4","MEAN_MOTION_DDOT":"0.0000000000000","NORAD_CAT_ID":"45532","INCLINATION":"53.0531","EPHEMERIS_TYPE":"0","EPOCH":"2023-03-28T21:22:59.202336","ELEMENT_SET_NO":"999","SITE":"AFETR","CLASSIFICATION_TYPE":"U","BSTAR":"0.00164980000000","ARG_OF_PERICENTER":"34.8078","RA_OF_ASC_NODE":"260.5525","FILE":"3873921","PERIOD":"95.588"},{"TLE_LINE2":"2 45534  53.0527 261.1001 0000866  68.9740 291.1341 15.06432776162775","PERIAPSIS":"546.513","REV_AT_EPOCH":"16277","MEAN_MOTION":"15.06432776","OBJECT_ID":"2020-025D","SEMIMAJOR_AXIS":"6925.248","MEAN_MOTION_DOT":"0.00018828","COUNTRY_CODE":"US","OBJECT_TYPE":"PAYLOAD","TIME_SYSTEM":"UTC","TLE_LINE1":"1 45534U 20025D   23087.76932269  .00018828  00000-0  12784-2 0  9995","ECCENTRICITY":"0.00008660","MEAN_ANOMALY":"291.1341","OBJECT_NAME":"STARLINK-1341","MEAN_ELEMENT_THEORY":"SGP4","DECAY_DATE":null,"MEAN_MOTION_DDOT":"0.0000000000000","APOAPSIS":"547.713","GP_ID":"229063808","RCS_SIZE":"LARGE","LAUNCH_DATE":"2020-04-22","CENTER_NAME":"EARTH","REF_FRAME":"TEME","RA_OF_ASC_NODE":"261.1001","PERIOD":"95.590","FILE":"3873921","CLASSIFICATION_TYPE":"U","BSTAR":"0.00127840000000","ARG_OF_PERICENTER":"68.9740","EPOCH":"2023-03-28T18:27:49.480416","ELEMENT_SET_NO":"999","SITE":"AFETR","NORAD_CAT_ID":"45534","INCLINATION":"53.0527","EPHEMERIS_TYPE":"0"},{"SEMIMAJOR_AXIS":"6925.165","COUNTRY_CODE":"US","OBJECT_TYPE":"PAYLOAD","MEAN_MOTION_DOT":"0.00022968","TIME_SYSTEM":"UTC","TLE_LINE1":"1 45535U 20025E   23087.85411649  .00022968  00000-0  15533-2 0  9995","ECCENTRICITY":"0.00008270","MEAN_ANOMALY":"275.2127","OBJECT_NAME":"STARLINK-1350","TLE_LINE2":"2 45535  53.0510 260.7218 0000827  84.8956 275.2127 15.06460003162797","PERIAPSIS":"546.457","REV_AT_EPOCH":"16279","MEAN_MOTION":"15.06460003","OBJECT_ID":"2020-025E","RA_OF_ASC_NODE":"260.7218","PERIOD":"95.588","FILE":"3873921","BSTAR":"0.00155330000000","CLASSIFICATION_TYPE":"U","ARG_OF_PERICENTER":"84.8956","EPOCH":"2023-03-28T20:29:55.664736","SITE":"AFETR","ELEMENT_SET_NO":"999","NORAD_CAT_ID":"45535","INCLINATION":"53.0510","EPHEMERIS_TYPE":"0","MEAN_ELEMENT_THEORY":"SGP4","DECAY_DATE":null,"MEAN_MOTION_DDOT":"0.0000000000000","APOAPSIS":"547.602","GP_ID":"229062580","RCS_SIZE":"LARGE","LAUNCH_DATE":"2020-04-22","REF_FRAME":"TEME","CENTER_NAME":"EARTH"},{"TLE_LINE2":"2 45536  53.0529 260.9999 0000990  95.4005 264.7097 15.06462614162777","PERIAPSIS":"546.336","REV_AT_EPOCH":"16277","MEAN_MOTION":"15.06462614","OBJECT_ID":"2020-025F","SEMIMAJOR_AXIS":"6925.157","OBJECT_TYPE":"PAYLOAD","COUNTRY_CODE":"US","MEAN_MOTION_DOT":"0.00024247","TIME_SYSTEM":"UTC","TLE_LINE1":"1 45536U 20025F   23087.79144918  .00024247  00000-0  16383-2 0  9997","ECCENTRICITY":"0.00009900","MEAN_ANOMALY":"264.7097","OBJECT_NAME":"STARLINK-1352","MEAN_ELEMENT_THEORY":"SGP4","DECAY_DATE":null,"MEAN_MOTION_DDOT":"0.0000000000000","APOAPSIS":"547.707","GP_ID":"229063329","RCS_SIZE":"LARGE","LAUNCH_DATE":"2020-04-22","CENTER_NAME":"EARTH","REF_FRAME":"TEME","RA_OF_ASC_NODE":"260.9999","PERIOD":"95.588","FILE":"3873921","BSTAR":"0.00163830000000","CLASSIFICATION_TYPE":"U","ARG_OF_PERICENTER":"95.4005","EPOCH":"2023-03-28T18:59:41.209152","SITE":"AFETR","ELEMENT_SET_NO":"999","NORAD_CAT_ID":"45536","INCLINATION":"53.0529","EPHEMERIS_TYPE":"0"},{"ARG_OF_PERICENTER":"72.9199","CLASSIFICATION_TYPE":"U","BSTAR":"0.00207970000000","FILE":"3873921","PERIOD":"95.588","RA_OF_ASC_NODE":"260.5887","EPHEMERIS_TYPE":"0","NORAD_CAT_ID":"45538","INCLINATION":"53.0534","SITE":"AFETR","ELEMENT_SET_NO":"999","EPOCH":"2023-03-28T21:12:21.079584","LAUNCH_DATE":"2020-04-22","RCS_SIZE":"LARGE","GP_ID":"229063580","APOAPSIS":"547.946","MEAN_MOTION_DDOT":"0.0000000000000","DECAY_DATE":null,"MEAN_ELEMENT_THEORY":"SGP4","REF_FRAME":"TEME","CENTER_NAME":"EARTH","TLE_LINE1":"1 45538U 20025H   23087.88357731  .00030888  00000-0  20797-2 0  9990","TIME_SYSTEM":"UTC","COUNTRY_CODE":"US","MEAN_MOTION_DOT":"0.00030888","OBJECT_TYPE":"PAYLOAD","SEMIMAJOR_AXIS":"6925.143","OBJECT_NAME":"STARLINK-1362","MEAN_ANOMALY":"287.1939","ECCENTRICITY":"0.00013550","TLE_LINE2":"2 45538  53.0534 260.5887 0001355  72.9199 287.1939 15.06467072162796","OBJECT_ID":"2020-025H","MEAN_MOTION":"15.06467072","REV_AT_EPOCH":"16279","PERIAPSIS":"546.070"},{"REF_FRAME":"TEME","CENTER_NAME":"EARTH","MEAN_MOTION_DDOT":"0.0000000000000","MEAN_ELEMENT_THEORY":"SGP4","DECAY_DATE":null,"LAUNCH_DATE":"2020-04-22","GP_ID":"229064309","APOAPSIS":"547.694","RCS_SIZE":"LARGE","SITE":"AFETR","ELEMENT_SET_NO":"999","EPOCH":"2023-03-28T19:04:59.570688","EPHEMERIS_TYPE":"0","NORAD_CAT_ID":"45540","INCLINATION":"53.0515","PERIOD":"95.588","FILE":"3873921","RA_OF_ASC_NODE":"260.9866","ARG_OF_PERICENTER":"65.6048","BSTAR":"0.00146770000000","CLASSIFICATION_TYPE":"U","MEAN_MOTION":"15.06464964","REV_AT_EPOCH":"16277","PERIAPSIS":"546.335","OBJECT_ID":"2020-025K","TLE_LINE2":"2 45540  53.0515 260.9866 0000981  65.6048 294.5043 15.06464964162778","ECCENTRICITY":"0.00009810","OBJECT_NAME":"STARLINK-1368","MEAN_ANOMALY":"294.5043","MEAN_MOTION_DOT":"0.00021686","COUNTRY_CODE":"US","OBJECT_TYPE":"PAYLOAD","TIME_SYSTEM":"UTC","SEMIMAJOR_AXIS":"6925.149","TLE_LINE1":"1 45540U 20025K   23087.79513392  .00021686  00000-0  14677-2 0  9996"},{"MEAN_MOTION_DDOT":"0.0000000000000","MEAN_ELEMENT_THEORY":"SGP4","DECAY_DATE":null,"LAUNCH_DATE":"2020-04-22","GP_ID":"229063079","APOAPSIS":"547.861","RCS_SIZE":"LARGE","REF_FRAME":"TEME","CENTER_NAME":"EARTH","PERIOD":"95.589","FILE":"3873921","RA_OF_ASC_NODE":"260.6733","ARG_OF_PERICENTER":"68.0759","CLASSIFICATION_TYPE":"U","BSTAR":"0.00159450000000","SITE":"AFETR","ELEMENT_SET_NO":"999","EPOCH":"2023-03-28T20:45:50.089248","EPHEMERIS_TYPE":"0","INCLINATION":"53.0509","NORAD_CAT_ID":"45541","TLE_LINE2":"2 45541  53.0509 260.6733 0001176  68.0759 292.0354 15.06454330162780","MEAN_MOTION":"15.06454330","REV_AT_EPOCH":"16278","PERIAPSIS":"546.233","OBJECT_ID":"2020-025L","OBJECT_TYPE":"PAYLOAD","COUNTRY_CODE":"US","MEAN_MOTION_DOT":"0.00023583","TIME_SYSTEM":"UTC","SEMIMAJOR_AXIS":"6925.182","TLE_LINE1":"1 45541U 20025L   23087.86516307  .00023583  00000-0  15945-2 0  9991","ECCENTRICITY":"0.00011760","OBJECT_NAME":"STARLINK-1369","MEAN_ANOMALY":"292.0354"},{"TLE_LINE1":"1 45542U 20025M   23087.76564701  .00004335  00000-0  30950-3 0  9990","SEMIMAJOR_AXIS":"6925.270","COUNTRY_CODE":"US","OBJECT_TYPE":"PAYLOAD","MEAN_MOTION_DOT":"0.00004335","TIME_SYSTEM":"UTC","MEAN_ANOMALY":"320.6250","OBJECT_NAME":"STARLINK-1371","ECCENTRICITY":"0.00010280","TLE_LINE2":"2 45542  53.0527 261.1197 0001028  39.4814 320.6250 15.06425719162772","OBJECT_ID":"2020-025M","PERIAPSIS":"546.423","MEAN_MOTION":"15.06425719","REV_AT_EPOCH":"16277","CLASSIFICATION_TYPE":"U","BSTAR":"0.00030950000000","ARG_OF_PERICENTER":"39.4814","RA_OF_ASC_NODE":"261.1197","PERIOD":"95.591","FILE":"3873921","NORAD_CAT_ID":"45542","INCLINATION":"53.0527","EPHEMERIS_TYPE":"0","EPOCH":"2023-03-28T18:22:31.901664","SITE":"AFETR","ELEMENT_SET_NO":"999","APOAPSIS":"547.847","GP_ID":"229062830","RCS_SIZE":"LARGE","LAUNCH_DATE":"2020-04-22","MEAN_ELEMENT_THEORY":"SGP4","DECAY_DATE":null,"MEAN_MOTION_DDOT":"0.0000000000000","REF_FRAME":"TEME","CENTER_NAME":"EARTH"}];
